[{"OBJECT_NAME":"ONEWEB-0515","OBJECT_ID":"2022-138W","EPOCH":"2026-03-09T15:36:16.174944","MEAN_MOTION":13.2077114,"ECCENTRICITY":0.0002365,"INCLINATION":87.9173,"RA_OF_ASC_NODE":294.2992,"ARG_OF_PERICENTER":70.7328,"MEAN_ANOMALY":289.4061,"EPHEMERIS_TYPE":0,"CLASSIFICATION_TYPE":"U","NORAD_CAT_ID":54133,"ELEMENT_SET_NO":999,"REV_AT_EPOCH":16616,"BSTAR":-0.00026566,"MEAN_MOTION_DOT":-9.5e-7,"MEAN_MOTION_DDOT":0},{"OBJECT_NAME":"SL-14 DEB","OBJECT_ID":"1991-056BY","EPOCH":"2026-03-09T06:42:43.217568","MEAN_MOTION":13.26678174,"ECCENTRICITY":0.004608,"INCLINATION":82.5583,"RA_OF_ASC_NODE":184.9455,"ARG_OF_PERICENTER":230.953,"MEAN_ANOMALY":128.7493,"EPHEMERIS_TYPE":0,"CLASSIFICATION_TYPE":"U","NORAD_CAT_ID":45334,"ELEMENT_SET_NO":999,"REV_AT_EPOCH":29218,"BSTAR":0.00047970343,"MEAN_MOTION_DOT":2.27e-6,"MEAN_MOTION_DDOT":0}]
